      2.10          N: GNSS NAV DATA                        RINEX VERSION / TYPE
fic2rin                                 10/16/2018 00:22:11 PGM / RUN BY / DATE
                                                            END OF HEADER
16 18 10 16  0  0  0.0 4.016794264317e-06-1.932676241267e-12 0.000000000000e+00
    6.000000000000e+01 5.921875000000e+01 3.919091817334e-09-1.571417938242e+00
    3.051012754440e-06 1.006021804642e-02 5.982816219330e-06 5.153713285446e+03
    1.728000000000e+05 1.080334186554e-07-9.856719717540e-01-1.583248376846e-07
    9.855186828089e-01 2.775625000000e+02 5.194383516638e-01-7.809968173666e-09
    3.643008888800e-11 1.000000000000e+00 2.023000000000e+03 0.000000000000e+00
    2.400000000000e+00 0.000000000000e+00-1.071020960808e-08 6.000000000000e+01
    1.656060000000e+05 4.000000000000e+00
30 18 10 16  0  0  0.0 9.628012776375e-06-5.456968210638e-12 0.000000000000e+00
    7.900000000000e+01 3.603125000000e+01 5.016994692252e-09 8.857389113124e-01
    1.953914761543e-06 3.596600843593e-03 7.972121238708e-06 5.153677764893e+03
    1.728000000000e+05-1.862645149231e-09-2.069100698258e+00 1.862645149231e-08
    9.428006527344e-01 2.132500000000e+02-2.969898702488e+00-8.281416382805e-09
   -2.821546100149e-10 1.000000000000e+00 2.023000000000e+03 0.000000000000e+00
    2.400000000000e+00 0.000000000000e+00 3.725290298462e-09 7.900000000000e+01
    1.656060000000e+05 4.000000000000e+00
26 18 10 16  0  0  0.0 1.049647107720e-05 1.125499693444e-11 0.000000000000e+00
    8.600000000000e+01 6.337500000000e+01 4.645193490954e-09-6.152593307864e-01
    3.209337592125e-06 3.042372292839e-03 6.260350346565e-06 5.153736717224e+03
    1.728000000000e+05 8.754432201385e-08-1.090631214951e+00-3.725290298462e-08
    9.540642953960e-01 2.574687500000e+02 4.501527666696e-02-8.245700609385e-09
   -1.035757429169e-10 1.000000000000e+00 2.023000000000e+03 0.000000000000e+00
    2.400000000000e+00 0.000000000000e+00 7.450580596924e-09 8.600000000000e+01
    1.656060000000e+05 4.000000000000e+00
31 18 10 16  0  0  0.0 8.648354560137e-05-2.614797267597e-12 0.000000000000e+00
    6.700000000000e+01 4.525000000000e+01 4.563047212089e-09 6.749457696062e-01
    2.361834049225e-06 8.976341923699e-03 7.985159754753e-06 5.153761907578e+03
    1.728000000000e+05 1.452863216400e-07-2.087493304567e+00 2.421438694000e-08
    9.618761638317e-01 2.220312500000e+02-9.920407080774e-02-8.046049435969e-09
   -3.403713206889e-10 1.000000000000e+00 2.023000000000e+03 0.000000000000e+00
    2.400000000000e+00 0.000000000000e+00-1.350417733192e-08 6.700000000000e+01
    1.656060000000e+05 4.000000000000e+00
18 18 10 16  0  0  0.0 6.865756586194e-05 4.092726157978e-12 0.000000000000e+00
    7.600000000000e+01-7.825000000000e+01 4.589476884420e-09 1.329965398306e+00
   -4.228204488754e-06 1.497741823550e-02 7.374212145805e-06 5.153629186630e+03
    1.728000000000e+05-2.179294824600e-07 9.793265353268e-01-2.272427082062e-07
    9.511839150280e-01 2.355312500000e+02 1.357809166385e+00-8.301774373654e-09
    7.714607058635e-11 1.000000000000e+00 2.023000000000e+03 0.000000000000e+00
    2.400000000000e+00 0.000000000000e+00-6.519258022308e-09 7.600000000000e+01
    1.656060000000e+05 4.000000000000e+00
12 18 10 16  0  0  0.0 2.994905225933e-04-2.842170943040e-12 0.000000000000e+00
    5.800000000000e+01 4.781250000000e+01 4.047668601644e-09 3.091799869760e-01
    2.495944499969e-06 7.031437591650e-03 5.569308996201e-06 5.153760646820e+03
    1.728000000000e+05-7.823109626770e-08-1.004584048569e+00 1.173466444016e-07
    9.851087087947e-01 2.848750000000e+02 1.022644723155e+00-8.009262189347e-09
   -1.164334213479e-10 1.000000000000e+00 2.023000000000e+03 0.000000000000e+00
    2.400000000000e+00 0.000000000000e+00-1.257285475731e-08 5.800000000000e+01
    1.656060000000e+05 4.000000000000e+00
10 18 10 16  0  0  0.0 1.742485910654e-04-3.410605131648e-12 0.000000000000e+00
    6.100000000000e+01-1.821875000000e+01 4.585548149344e-09-4.129013644849e-01
   -8.754432201385e-07 3.886061487719e-03 8.467584848404e-06 5.153661762238e+03
    1.728000000000e+05 6.332993507385e-08 2.069307595836e+00 8.381903171539e-08
    9.615678187364e-01 2.157812500000e+02-2.814819929783e+00-8.013905239892e-09
    3.142988060926e-10 1.000000000000e+00 2.023000000000e+03 0.000000000000e+00
    2.400000000000e+00 0.000000000000e+00 1.862645149231e-09 6.100000000000e+01
    1.656060000000e+05 4.000000000000e+00
 9 18 10 16  0  0  0.0 5.001514218748e-04-2.728484105319e-12 0.000000000000e+00
    6.200000000000e+01 1.056250000000e+01 5.026995108810e-09-2.062742879692e+00
    6.426125764847e-07 1.246817992069e-03 7.214024662971e-06 5.153802286148e+03
    1.728000000000e+05-2.607703208923e-08 3.105631107738e+00 5.587935447693e-08
    9.529932608860e-01 2.373437500000e+02 1.685707427178e+00-8.168911696533e-09
    2.000083311498e-11 1.000000000000e+00 2.023000000000e+03 0.000000000000e+00
    2.400000000000e+00 0.000000000000e+00 1.396983861923e-09 6.200000000000e+01
    1.656060000000e+05 4.000000000000e+00
 6 18 10 16  0  0  0.0 3.490410745144e-04-5.684341886081e-12 0.000000000000e+00
    8.300000000000e+01-5.553125000000e+01 4.012667143693e-09 1.876841055038e+00
   -2.833083271980e-06 9.959584567696e-04 7.666647434235e-06 5.153723844528e+03
    1.728000000000e+05 3.352761268616e-08 1.021273690960e+00 1.303851604462e-08
    9.724107890640e-01 2.366250000000e+02-1.182261526258e+00-7.827826060376e-09
    1.642925577302e-10 1.000000000000e+00 2.023000000000e+03 0.000000000000e+00
    2.400000000000e+00 0.000000000000e+00 4.656612873077e-09 8.300000000000e+01
    1.656060000000e+05 4.000000000000e+00
29 18 10 16  0  0  0.0 3.562057390809e-04-7.730704965070e-12 0.000000000000e+00
    8.500000000000e+01-3.509375000000e+01 4.001238096199e-09-2.001655323767e+00
   -1.881271600723e-06 7.342397002503e-04 5.075708031654e-06 5.153618253708e+03
    1.728000000000e+05-5.587935447693e-09 3.959589664232e-02-1.676380634308e-08
    9.850295444458e-01 2.956562500000e+02 1.661866908090e+00-7.962831683902e-09
   -8.464638300447e-11 1.000000000000e+00 2.023000000000e+03 0.000000000000e+00
    3.400000000000e+00 0.000000000000e+00-1.024454832077e-08 8.500000000000e+01
    1.656060000000e+05 4.000000000000e+00
20 18 10 16  0  0  0.0 5.173385143280e-04 5.684341886081e-13 0.000000000000e+00
    7.100000000000e+01-2.256250000000e+01 5.285577308368e-09 1.402572607556e+00
   -1.195818185806e-06 4.381267004646e-03 8.208677172661e-06 5.153671794891e+03
    1.728000000000e+05 8.195638656616e-08 1.958428022651e+00-9.313225746155e-09
    9.289444310414e-01 2.035312500000e+02 2.133514034589e+00-8.328204045984e-09
    3.235849071817e-10 1.000000000000e+00 2.023000000000e+03 0.000000000000e+00
    2.400000000000e+00 0.000000000000e+00-8.381903171539e-09 7.100000000000e+01
    1.656060000000e+05 4.000000000000e+00
28 18 10 16  0  0  0.0 7.499181665480e-04 1.818989403546e-12 0.000000000000e+00
    6.800000000000e+01 5.062500000000e+01 3.948021593804e-09-1.637574282948e+00
    2.868473529816e-06 1.962301076856e-02 5.908310413361e-06 5.153692672729e+03
    1.728000000000e+05 5.401670932770e-08-9.815349784031e-01 4.954636096954e-07
    9.844216083571e-01 2.799062500000e+02-1.508143191052e+00-7.837112161465e-09
   -1.389343586023e-10 1.000000000000e+00 2.023000000000e+03 0.000000000000e+00
    2.400000000000e+00 0.000000000000e+00-1.117587089539e-08 6.800000000000e+01
    1.656060000000e+05 4.000000000000e+00
 4 18 10 16  0  0  0.0 1.823296770453e-05-2.739852789091e-11 0.000000000000e+00
    1.340000000000e+02-1.931250000000e+01 4.513045129302e-09-2.349171740249e+00
   -9.499490261078e-07 1.358771510422e-02 4.028901457787e-06 5.153672203064e+03
    1.728000000000e+05 2.048909664154e-08-1.229740406710e-01-1.471489667892e-07
    9.590500445582e-01 3.012500000000e+02 5.715958401639e-01-8.128910030303e-09
    9.036090675161e-11 1.000000000000e+00 2.023000000000e+03 0.000000000000e+00
    3.400000000000e+00 6.300000000000e+01-5.587935447693e-09 1.340000000000e+02
    1.678560000000e+05 4.000000000000e+00
18 18 10 15 23 59 44.0 6.865756586194e-05 4.092726157978e-12 0.000000000000e+00
    6.000000000000e+00-7.825000000000e+01 4.589476884420e-09 1.327631425155e+00
   -4.228204488754e-06 1.497741974890e-02 7.374212145805e-06 5.153629179001e+03
    1.727840000000e+05-2.179294824600e-07 9.793266611378e-01-2.272427082062e-07
    9.511839018618e-01 2.355312500000e+02 1.357809422395e+00-8.301774373654e-09
    7.678891285216e-11 1.000000000000e+00 2.023000000000e+03 0.000000000000e+00
    2.400000000000e+00 0.000000000000e+00-6.519258022308e-09 6.000000000000e+00
    1.699860000000e+05 4.000000000000e+00
19 18 10 15 23 59 44.0-3.931741230190e-04 3.637978807092e-12 0.000000000000e+00
    1.500000000000e+01-3.390625000000e+01 3.963736534108e-09 2.133944909314e-01
   -1.637265086174e-06 9.563996922225e-03 5.429610610008e-06 5.153605087280e+03
    1.727840000000e+05-2.123415470123e-07 7.546888621061e-02 3.539025783539e-08
    9.813120048182e-01 2.885312500000e+02 1.300727429798e+00-8.032834599804e-09
   -5.321650239522e-11 1.000000000000e+00 2.023000000000e+03 0.000000000000e+00
    2.400000000000e+00 0.000000000000e+00-1.536682248116e-08 1.500000000000e+01
    1.701660000000e+05 4.000000000000e+00
